0 FENGYUN 1C DEB
1 32175U 99025CTV 13282.40598162  .00001350  00000-0  12680-2 0  3143
2 32175 098.8126 117.7816 0178327 086.6099 275.5700 13.76218395312952
0 FENGYUN 1C DEB
1 32175U 99025CTV 13283.35110062  .00001412  00000-0  13232-2 0  3151
2 32175 098.8089 118.6623 0179175 083.6830 278.4803 13.76222824313081
0 FENGYUN 1C DEB
1 32175U 99025CTV 13287.34966678  .00001484  00000-0  13859-2 0  3161
2 32175 098.8131 122.3796 0180614 073.2362 288.8904 13.76236617313630
0 FENGYUN 1C DEB
1 32175U 99025CTV 13288.36746714  .00001507  00000-0  14061-2 0  3174
2 32175 098.8202 123.3317 0181210 070.8627 291.2172 13.76240248313774
0 FENGYUN 1C DEB
1 32175U 99025CTV 13291.34816882  .00001558  00000-0  14497-2 0  3180
2 32175 098.8269 126.1102 0182412 063.6054 298.4011 13.76250914314187
0 FENGYUN 1C DEB
1 32175U 99025CTV 13294.40153536  .00001761  00000-0  16419-2 0  3193
2 32175 098.8272 128.9099 0178710 055.4626 306.4677 13.76265905314607
